[{"OBJECT_NAME":"2023-085M","OBJECT_ID":"2023-085M","EPOCH":"2024-02-07T03:41:00.545856","MEAN_MOTION":15.13609989,"ECCENTRICITY":0.0010391,"INCLINATION":97.4671,"RA_OF_ASC_NODE":144.3836,"ARG_OF_PERICENTER":176.3562,"MEAN_ANOMALY":183.7747,"EPHEMERIS_TYPE":0,"CLASSIFICATION_TYPE":"U","NORAD_CAT_ID":57015,"ELEMENT_SET_NO":999,"REV_AT_EPOCH":3577,"BSTAR":0.0010142,"MEAN_MOTION_DOT":0.00018201,"MEAN_MOTION_DDOT":0},{"OBJECT_NAME":"2023-085N","OBJECT_ID":"2023-085N","EPOCH":"2024-02-07T03:43:53.444352","MEAN_MOTION":15.13629701,"ECCENTRICITY":0.0010636,"INCLINATION":97.4664,"RA_OF_ASC_NODE":144.3579,"ARG_OF_PERICENTER":177.0018,"MEAN_ANOMALY":183.1279,"EPHEMERIS_TYPE":0,"CLASSIFICATION_TYPE":"U","NORAD_CAT_ID":57016,"ELEMENT_SET_NO":999,"REV_AT_EPOCH":3577,"BSTAR":0.0010191,"MEAN_MOTION_DOT":0.00018301,"MEAN_MOTION_DDOT":0},{"OBJECT_NAME":"2023-085P","OBJECT_ID":"2023-085P","EPOCH":"2024-02-06T21:14:03.500736","MEAN_MOTION":15.13642922,"ECCENTRICITY":0.0010106,"INCLINATION":97.4626,"RA_OF_ASC_NODE":143.9951,"ARG_OF_PERICENTER":178.843,"MEAN_ANOMALY":181.2827,"EPHEMERIS_TYPE":0,"CLASSIFICATION_TYPE":"U","NORAD_CAT_ID":57017,"ELEMENT_SET_NO":999,"REV_AT_EPOCH":3573,"BSTAR":0.0010126,"MEAN_MOTION_DOT":0.00018188,"MEAN_MOTION_DDOT":0},{"OBJECT_NAME":"2023-085Q","OBJECT_ID":"2023-085Q","EPOCH":"2024-02-06T22:17:30.983712","MEAN_MOTION":15.13876478,"ECCENTRICITY":0.0011359,"INCLINATION":97.4605,"RA_OF_ASC_NODE":144.0361,"ARG_OF_PERICENTER":181.431,"MEAN_ANOMALY":178.6891,"EPHEMERIS_TYPE":0,"CLASSIFICATION_TYPE":"U","NORAD_CAT_ID":57018,"ELEMENT_SET_NO":999,"REV_AT_EPOCH":3574,"BSTAR":0.00095138,"MEAN_MOTION_DOT":0.000172,"MEAN_MOTION_DDOT":0},{"OBJECT_NAME":"2023-085R","OBJECT_ID":"2023-085R","EPOCH":"2024-02-07T03:31:31.057536","MEAN_MOTION":15.13652342,"ECCENTRICITY":0.001043,"INCLINATION":97.4605,"RA_OF_ASC_NODE":144.1939,"ARG_OF_PERICENTER":178.7525,"MEAN_ANOMALY":181.3735,"EPHEMERIS_TYPE":0,"CLASSIFICATION_TYPE":"U","NORAD_CAT_ID":57019,"ELEMENT_SET_NO":999,"REV_AT_EPOCH":3577,"BSTAR":0.0010066,"MEAN_MOTION_DOT":0.00018086,"MEAN_MOTION_DDOT":0},{"OBJECT_NAME":"2023-085S","OBJECT_ID":"2023-085S","EPOCH":"2024-02-06T21:03:50.250816","MEAN_MOTION":15.13657364,"ECCENTRICITY":0.0010816,"INCLINATION":97.4667,"RA_OF_ASC_NODE":144.1352,"ARG_OF_PERICENTER":178.6814,"MEAN_ANOMALY":181.4448,"EPHEMERIS_TYPE":0,"CLASSIFICATION_TYPE":"U","NORAD_CAT_ID":57020,"ELEMENT_SET_NO":999,"REV_AT_EPOCH":3573,"BSTAR":0.0010194,"MEAN_MOTION_DOT":0.00018321,"MEAN_MOTION_DDOT":0},{"OBJECT_NAME":"2023-085T","OBJECT_ID":"2023-085T","EPOCH":"2024-02-07T03:28:40.512576","MEAN_MOTION":15.13541341,"ECCENTRICITY":0.0010452,"INCLINATION":97.4597,"RA_OF_ASC_NODE":144.1711,"ARG_OF_PERICENTER":181.1562,"MEAN_ANOMALY":178.9647,"EPHEMERIS_TYPE":0,"CLASSIFICATION_TYPE":"U","NORAD_CAT_ID":57021,"ELEMENT_SET_NO":999,"REV_AT_EPOCH":3577,"BSTAR":0.00096794,"MEAN_MOTION_DOT":0.00017333,"MEAN_MOTION_DDOT":0},{"OBJECT_NAME":"2023-085U","OBJECT_ID":"2023-085U","EPOCH":"2024-02-06T22:15:55.420128","MEAN_MOTION":15.13799825,"ECCENTRICITY":0.0011487,"INCLINATION":97.4661,"RA_OF_ASC_NODE":144.212,"ARG_OF_PERICENTER":185.557,"MEAN_ANOMALY":174.5536,"EPHEMERIS_TYPE":0,"CLASSIFICATION_TYPE":"U","NORAD_CAT_ID":57022,"ELEMENT_SET_NO":999,"REV_AT_EPOCH":3574,"BSTAR":0.0009594,"MEAN_MOTION_DOT":0.00017309,"MEAN_MOTION_DDOT":0},{"OBJECT_NAME":"2023-085V","OBJECT_ID":"2023-085V","EPOCH":"2024-02-06T21:35:40.064064","MEAN_MOTION":15.12282225,"ECCENTRICITY":0.0010723,"INCLINATION":97.4656,"RA_OF_ASC_NODE":143.8975,"ARG_OF_PERICENTER":198.2589,"MEAN_ANOMALY":161.8258,"EPHEMERIS_TYPE":0,"CLASSIFICATION_TYPE":"U","NORAD_CAT_ID":57023,"ELEMENT_SET_NO":999,"REV_AT_EPOCH":3572,"BSTAR":0.00076682,"MEAN_MOTION_DOT":0.00013237,"MEAN_MOTION_DDOT":0},{"OBJECT_NAME":"2023-085W","OBJECT_ID":"2023-085W","EPOCH":"2024-02-07T03:19:19.862112","MEAN_MOTION":15.1364505,"ECCENTRICITY":0.0011226,"INCLINATION":97.4658,"RA_OF_ASC_NODE":144.364,"ARG_OF_PERICENTER":184.3744,"MEAN_ANOMALY":175.7391,"EPHEMERIS_TYPE":0,"CLASSIFICATION_TYPE":"U","NORAD_CAT_ID":57024,"ELEMENT_SET_NO":999,"REV_AT_EPOCH":3577,"BSTAR":0.00098186,"MEAN_MOTION_DOT":0.00017638,"MEAN_MOTION_DDOT":0},{"OBJECT_NAME":"2023-085X","OBJECT_ID":"2023-085X","EPOCH":"2024-02-06T22:09:47.112480","MEAN_MOTION":15.13807598,"ECCENTRICITY":0.0010663,"INCLINATION":97.4613,"RA_OF_ASC_NODE":144.0689,"ARG_OF_PERICENTER":184.8601,"MEAN_ANOMALY":175.2529,"EPHEMERIS_TYPE":0,"CLASSIFICATION_TYPE":"U","NORAD_CAT_ID":57025,"ELEMENT_SET_NO":999,"REV_AT_EPOCH":3574,"BSTAR":0.00098146,"MEAN_MOTION_DOT":0.00017709,"MEAN_MOTION_DDOT":0},{"OBJECT_NAME":"2023-085Y","OBJECT_ID":"2023-085Y","EPOCH":"2024-02-06T21:21:19.909728","MEAN_MOTION":15.12324969,"ECCENTRICITY":0.0010296,"INCLINATION":97.464,"RA_OF_ASC_NODE":143.8597,"ARG_OF_PERICENTER":199.039,"MEAN_ANOMALY":161.0457,"EPHEMERIS_TYPE":0,"CLASSIFICATION_TYPE":"U","NORAD_CAT_ID":57026,"ELEMENT_SET_NO":999,"REV_AT_EPOCH":3572,"BSTAR":0.00073109,"MEAN_MOTION_DOT":0.0001263,"MEAN_MOTION_DDOT":0},{"OBJECT_NAME":"2023-085Z","OBJECT_ID":"2023-085Z","EPOCH":"2024-02-06T21:20:47.979744","MEAN_MOTION":15.13340722,"ECCENTRICITY":0.0011188,"INCLINATION":97.4609,"RA_OF_ASC_NODE":143.9326,"ARG_OF_PERICENTER":185.9673,"MEAN_ANOMALY":174.1427,"EPHEMERIS_TYPE":0,"CLASSIFICATION_TYPE":"U","NORAD_CAT_ID":57027,"ELEMENT_SET_NO":999,"REV_AT_EPOCH":3573,"BSTAR":0.0010207,"MEAN_MOTION_DOT":0.00018184,"MEAN_MOTION_DDOT":0},{"OBJECT_NAME":"2023-085AA","OBJECT_ID":"2023-085AA","EPOCH":"2024-02-06T22:20:41.148384","MEAN_MOTION":15.13681531,"ECCENTRICITY":0.0011658,"INCLINATION":97.4644,"RA_OF_ASC_NODE":144.1515,"ARG_OF_PERICENTER":184.0457,"MEAN_ANOMALY":176.0682,"EPHEMERIS_TYPE":0,"CLASSIFICATION_TYPE":"U","NORAD_CAT_ID":57028,"ELEMENT_SET_NO":999,"REV_AT_EPOCH":3574,"BSTAR":0.00097993,"MEAN_MOTION_DOT":0.00017624,"MEAN_MOTION_DDOT":0},{"OBJECT_NAME":"2023-085AB","OBJECT_ID":"2023-085AB","EPOCH":"2024-02-07T04:16:51.491136","MEAN_MOTION":15.13868522,"ECCENTRICITY":0.0010903,"INCLINATION":97.4606,"RA_OF_ASC_NODE":144.3133,"ARG_OF_PERICENTER":188.9914,"MEAN_ANOMALY":171.1124,"EPHEMERIS_TYPE":0,"CLASSIFICATION_TYPE":"U","NORAD_CAT_ID":57029,"ELEMENT_SET_NO":999,"REV_AT_EPOCH":3578,"BSTAR":0.0010469,"MEAN_MOTION_DOT":0.00018931,"MEAN_MOTION_DDOT":0},{"OBJECT_NAME":"2023-085AC","OBJECT_ID":"2023-085AC","EPOCH":"2024-02-06T22:17:39.210720","MEAN_MOTION":15.13547671,"ECCENTRICITY":0.0010885,"INCLINATION":97.4584,"RA_OF_ASC_NODE":143.9687,"ARG_OF_PERICENTER":189.3086,"MEAN_ANOMALY":170.7945,"EPHEMERIS_TYPE":0,"CLASSIFICATION_TYPE":"U","NORAD_CAT_ID":57030,"ELEMENT_SET_NO":999,"REV_AT_EPOCH":3574,"BSTAR":0.00090235,"MEAN_MOTION_DOT":0.00016156,"MEAN_MOTION_DDOT":0},{"OBJECT_NAME":"2023-085AD","OBJECT_ID":"2023-085AD","EPOCH":"2024-02-07T03:32:52.054944","MEAN_MOTION":15.12289292,"ECCENTRICITY":0.0013377,"INCLINATION":97.4632,"RA_OF_ASC_NODE":144.1006,"ARG_OF_PERICENTER":205.8381,"MEAN_ANOMALY":154.2183,"EPHEMERIS_TYPE":0,"CLASSIFICATION_TYPE":"U","NORAD_CAT_ID":57031,"ELEMENT_SET_NO":999,"REV_AT_EPOCH":3576,"BSTAR":0.00072522,"MEAN_MOTION_DOT":0.00012526,"MEAN_MOTION_DDOT":0},{"OBJECT_NAME":"2023-085AE","OBJECT_ID":"2023-085AE","EPOCH":"2024-02-06T22:09:25.986816","MEAN_MOTION":15.13634687,"ECCENTRICITY":0.0011519,"INCLINATION":97.4646,"RA_OF_ASC_NODE":144.17,"ARG_OF_PERICENTER":190.8132,"MEAN_ANOMALY":169.2853,"EPHEMERIS_TYPE":0,"CLASSIFICATION_TYPE":"U","NORAD_CAT_ID":57032,"ELEMENT_SET_NO":999,"REV_AT_EPOCH":3574,"BSTAR":0.00099156,"MEAN_MOTION_DOT":0.0001781,"MEAN_MOTION_DDOT":0},{"OBJECT_NAME":"2023-085AF","OBJECT_ID":"2023-085AF","EPOCH":"2024-02-07T03:26:00.615552","MEAN_MOTION":15.14348816,"ECCENTRICITY":0.0010386,"INCLINATION":97.4638,"RA_OF_ASC_NODE":144.5884,"ARG_OF_PERICENTER":190.0667,"MEAN_ANOMALY":170.0358,"EPHEMERIS_TYPE":0,"CLASSIFICATION_TYPE":"U","NORAD_CAT_ID":57033,"ELEMENT_SET_NO":999,"REV_AT_EPOCH":3579,"BSTAR":0.00082074,"MEAN_MOTION_DOT":0.00015019,"MEAN_MOTION_DDOT":0},{"OBJECT_NAME":"2023-085AG","OBJECT_ID":"2023-085AG","EPOCH":"2024-02-06T22:10:13.685664","MEAN_MOTION":15.13605991,"ECCENTRICITY":0.0011159,"INCLINATION":97.4653,"RA_OF_ASC_NODE":144.1901,"ARG_OF_PERICENTER":192.7281,"MEAN_ANOMALY":167.367,"EPHEMERIS_TYPE":0,"CLASSIFICATION_TYPE":"U","NORAD_CAT_ID":57034,"ELEMENT_SET_NO":999,"REV_AT_EPOCH":3574,"BSTAR":0.00096449,"MEAN_MOTION_DOT":0.00017305,"MEAN_MOTION_DDOT":0},{"OBJECT_NAME":"2023-085AH","OBJECT_ID":"2023-085AH","EPOCH":"2024-02-06T22:06:02.509632","MEAN_MOTION":15.13607691,"ECCENTRICITY":0.0011109,"INCLINATION":97.4604,"RA_OF_ASC_NODE":144.0461,"ARG_OF_PERICENTER":192.1545,"MEAN_ANOMALY":167.942,"EPHEMERIS_TYPE":0,"CLASSIFICATION_TYPE":"U","NORAD_CAT_ID":57035,"ELEMENT_SET_NO":999,"REV_AT_EPOCH":3574,"BSTAR":0.0009864,"MEAN_MOTION_DOT":0.00017701,"MEAN_MOTION_DDOT":0},{"OBJECT_NAME":"2023-085AJ","OBJECT_ID":"2023-085AJ","EPOCH":"2024-02-06T21:10:34.601088","MEAN_MOTION":15.13137024,"ECCENTRICITY":0.0010845,"INCLINATION":97.4637,"RA_OF_ASC_NODE":144.1646,"ARG_OF_PERICENTER":188.967,"MEAN_ANOMALY":171.1369,"EPHEMERIS_TYPE":0,"CLASSIFICATION_TYPE":"U","NORAD_CAT_ID":57036,"ELEMENT_SET_NO":999,"REV_AT_EPOCH":3574,"BSTAR":0.00065022,"MEAN_MOTION_DOT":0.00011483,"MEAN_MOTION_DDOT":0},{"OBJECT_NAME":"2023-085AK","OBJECT_ID":"2023-085AK","EPOCH":"2024-02-07T03:29:39.000192","MEAN_MOTION":15.13266397,"ECCENTRICITY":0.0010877,"INCLINATION":97.4641,"RA_OF_ASC_NODE":144.4373,"ARG_OF_PERICENTER":190.7131,"MEAN_ANOMALY":169.387,"EPHEMERIS_TYPE":0,"CLASSIFICATION_TYPE":"U","NORAD_CAT_ID":57037,"ELEMENT_SET_NO":999,"REV_AT_EPOCH":3578,"BSTAR":0.00064629,"MEAN_MOTION_DOT":0.00011455,"MEAN_MOTION_DDOT":0}]
